ASTRA 1L                
1 31306U 07016A   22206.78330566  .00000123  00000+0  00000+0 0  9991
2 31306   0.0778 297.2990 0000440 207.0058 100.3627  1.00275136 30754
GALAXY 17 (G-17)        
1 31307U 07016B   22206.80218187 -.00000171  00000+0  00000+0 0  9993
2 31307   0.0151  47.5733 0002915  95.4660 358.2165  1.00272318 55542
ZHONGXING-6B            
1 31800U 07031A   22207.48906824 -.00000359  00000+0  00000+0 0  9993
2 31800   0.0091 276.4429 0003607 213.5244 105.7266  1.00268844 55218
DIRECTV 10              
1 31862U 07032A   22207.39813017 -.00000101  00000+0  00000+0 0  9998
2 31862   0.0192 235.4921 0000522 336.4723 132.6407  1.00271401 55141
SPACEWAY 3              
1 32018U 07036A   22207.10032105 -.00000149  00000+0  00000+0 0  9998
2 32018   0.3195  89.4540 0000381 152.8950   2.5769  1.00272145 54860
BSAT-3A                 
1 32019U 07036B   22207.01924406 -.00000347  00000+0  00000+0 0  9993
2 32019   0.0764 251.0755 0002777 297.7258 231.6572  1.00271185 54800
OPTUS D2                
1 32252U 07044A   22206.85055755 -.00000181  00000+0  00000+0 0  9990
2 32252   0.0135 350.0513 0003462 137.1481 274.5191  1.00272684 54303
INTELSAT 11 (IS-11)     
1 32253U 07044B   22207.09877687 -.00000266  00000+0  00000+0 0  9998
2 32253   0.0143 351.7329 0001630 169.8842 134.7158  1.00272261 54260
WGS F1 (USA 195)        
1 32258U 07046A   22207.36299471  .00000043  00000+0  00000+0 0  9996
2 32258   0.0163  80.9307 0002155 158.4103 201.3569  1.00269899 54069
SKYNET 5B               
1 32294U 07056B   22207.32751795  .00000142  00000+0  00000+0 0  9995
2 32294   1.6223  89.0608 0003698  37.3695 320.5606  1.00270406 53938
ASTRA 4A (SIRIUS 4)     
1 32299U 07057A   22206.87618814  .00000035  00000+0  00000+0 0  9995
2 32299   0.0304 313.4933 0002597 171.4947 138.7886  1.00271096 37407
HORIZONS-2              
1 32388U 07063B   22207.34632604  .00000138  00000+0  00000+0 0  9991
2 32388   0.0160  23.2081 0004692  65.1005  25.2493  0.99704960 53622
THURAYA-3               
1 32404U 08001A   22206.83991910 -.00000301  00000+0  00000+0 0  9997
2 32404   4.0858  23.8306 0002244  91.3336 229.2142  1.00271463 53227
EXPRESS-AM33            
1 32478U 08003A   22207.32036752 -.00000088  00000+0  00000+0 0  9991
2 32478   1.1528  92.5396 0000513 107.6355 208.0374  1.00272503 53342
THOR 5                  
1 32487U 08006A   22206.82014514 -.00000006  00000+0  00000+0 0  9990
2 32487   0.0559 249.9381 0002095 243.4515 104.6066  1.00273601 53046
AMC-14                  
1 32708U 08011A   22207.21299352  .00000069  00000+0  00000+0 0  9999
2 32708  22.1241  37.7039 0038510   9.4769 350.8397  1.00278072 53847
DIRECTV 11              
1 32729U 08013A   22207.40148141 -.00000123  00000+0  00000+0 0  9996
2 32729   0.0057 298.3602 0000306 265.8138 145.2301  1.00271024 52683
ICO G1                  
1 32763U 08016A   22206.51478071 -.00000170  00000+0  00000+0 0  9998
2 32763   4.0577  26.9600 0002178  98.3817 270.3098  1.00270993 52280
VINASAT-1               
1 32767U 08018A   22206.91834623 -.00000326  00000+0  00000+0 0  9990
2 32767   0.0539 277.6354 0001486 230.4040 258.0852  1.00270817 52339
STAR ONE C2             
1 32768U 08018B   22207.45305449 -.00000274  00000+0  00000+0 0  9992
2 32768   0.0550  50.8540 0002494  87.6169 263.7223  1.00269925 52293
AMOS-3                  
1 32794U 08022A   22206.81944753 -.00000032  00000+0  00000+0 0  9994
2 32794   0.0280  99.6478 0002543  12.1068 122.6089  1.00273410 68080
GALAXY 18 (G-18)        
1 32951U 08024A   22206.71299418  .00000028  00000+0  00000+0 0  9995
2 32951   0.0124 344.8910 0003239 149.8774 302.2812  1.00272996 31586
CHINASAT 9 (ZX 9)       
1 33051U 08028A   22207.38174476 -.00000245  00000+0  00000+0 0  9993
2 33051   0.0149 101.9178 0004292  42.8757  28.8881  1.00272590 51754
SKYNET 5C               
1 33055U 08030A   22206.88174263 -.00000137  00000+0  00000+0 0  9998
2 33055   0.1430  71.3110 0004404  65.6826 106.1919  1.00271929 51693
TURKSAT 3A              
1 33056U 08030B   22207.20188213  .00000148  00000+0  00000+0 0  9997
2 33056   0.0146 130.2570 0005247 359.8249 288.4473  1.00273990 51829
INTELSAT 25 (IS-25)     
1 33153U 08034A   22207.31626911 -.00000222  00000+0  00000+0 0  9997
2 33153   0.0148 102.9814 0002939  49.9838 233.3554  1.00271044 51380
BADR-6                  
1 33154U 08034B   22207.04070144  .00000147  00000+0  00000+0 0  9994
2 33154   0.0452  42.1717 0004824  81.2000 220.9831  1.00276630 51499
ECHOSTAR 11             
1 33207U 08035A   22207.38965181 -.00000054  00000+0  00000+0 0  9993
2 33207   0.0162   4.7596 0002422 120.6210 208.9426  1.00272814 51405
SUPERBIRD-C2            
1 33274U 08038A   22207.43938321 -.00000249  00000+0  00000+0 0  9998
2 33274   0.0130  66.7701 0002385  88.7632  90.6868  1.00268401 51122
AMC-21                  
1 33275U 08038B   22206.71299418  .00000039  00000+0  00000+0 0  9992
2 33275   0.0543 282.7651 0002781 215.0164 297.3696  1.00271451 51236
INMARSAT 4-F3           
1 33278U 08039A   22207.13313222 -.00000138  00000+0  00000+0 0  9994
2 33278   3.3184  20.4024 0002843 112.2854 121.0499  1.00271163 51009
NIMIQ 4                 
1 33373U 08044A   22207.13452096 -.00000218  00000+0  00000+0 0  9998
2 33373   0.0218  70.4191 0002218  51.1561 148.6317  1.00270522 50572
GALAXY 19 (G-19)        
1 33376U 08045A   22207.40483222 -.00000137  00000+0  00000+0 0  9997
2 33376   0.0660 262.3377 0002766 228.0890 222.3735  1.00273103 50585
ASTRA 1M                
1 33436U 08057A   22206.96761442  .00000123  00000+0  00000+0 0  9994
2 33436   0.0162  78.2148 0005135  60.2473 172.6975  1.00277655 50214
CIEL-2                  
1 33453U 08063A   22207.52757606  .00000060  00000+0  00000+0 0  9990
2 33453   0.0084 296.8238 0002774 190.4657 237.9681  1.00272692 49875
EUTELSAT HOTBIRD 13C    
1 33459U 08065A   22207.10985133  .00000090  00000+0  00000+0 0  9993
2 33459   0.0445  42.6714 0005838  88.0354 225.6419  1.00277219 49994
EUTELSAT 48D            
1 33460U 08065B   22206.83035355 -.00000099  00000+0  00000+0 0  9996
2 33460   1.5563  92.1668 0003593  31.0600 106.6817  1.00272885 49690
FENGYUN 2E              
1 33463U 08066A   22206.61021737 -.00000207  00000+0  00000+0 0  9996
2 33463   5.9881  65.0967 0002977  17.3791 167.2434  1.00273226 49821
EXPRESS-AM44            
1 33595U 09007A   22206.93035622 -.00000086  00000+0  00000+0 0  9996
2 33595   0.0524 220.6784 0000168  58.3125 348.5341  1.00272170 49298
NSS-9                   
1 33749U 09008A   22206.78500340  .00000074  00000+0  00000+0 0  9991
2 33749   0.0539 286.1374 0001922 199.0447 283.9478  1.00272040 49262
EUTELSAT 33E            
1 33750U 09008B   22206.82692624  .00000158  00000+0  00000+0 0  9998
2 33750   0.0497   8.0457 0003899 114.0886 152.1196  1.00271336 49181
TELSTAR 11N             
1 34111U 09009A   22207.09982328 -.00000248  00000+0  00000+0 0  9995
2 34111   0.0237  64.9941 0001307  40.3913 196.7835  1.00270448 49152
EUTELSAT 10A            
1 34710U 09016A   22207.32437875  .00000070  00000+0  00000+0 0  9998
2 34710   0.0461   5.0410 0005788 119.9109 305.7964  1.00270919 48719
WGS F2 (USA 204)        
1 34713U 09017A   22206.90352215  .00000070  00000+0  00000+0 0  9999
2 34713   0.0161  60.4375 0001090  17.8025 248.1229  1.00272346 48674
SES-7 (PROTOSTAR 2)     
1 34941U 09027A   22207.34408604 -.00000342  00000+0  00000+0 0  9999
2 34941   0.0254 317.2901 0001179 261.1365 317.6945  1.00270627 48359
MEASAT-3A               
1 35362U 09032A   22207.03035260 -.00000239  00000+0  00000+0 0  9998
2 35362   0.0156 187.0917 0002645 355.7848 223.2673  1.00268831 47974
GOES 14                 
1 35491U 09033A   22207.44520645 -.00000090  00000+0  00000+0 0  9998
2 35491   0.4069  94.9254 0013906 116.9140 147.9442  1.00273184 47904
FM-5                    
1 35493U 09034A   22207.44886887 -.00000198  00000+0  00000+0 0  9993
2 35493   0.0181  30.9253 0000556 337.1046  11.5387  1.00270906 47728
TERRESTAR-1             
1 35496U 09035A   22207.38776289 -.00000055  00000+0  00000+0 0  9996
2 35496   3.2508  39.3479 0002806  90.8027 202.4877  1.00272140 47901
ASIASAT 5               
1 35696U 09042A   22207.05561271 -.00000305  00000+0  00000+0 0  9991
2 35696   0.0087  46.5171 0001199  64.9012 312.8275  1.00274494 47417
JCSAT-12 (JCSAT-RA)     
1 35755U 09044A   22207.49238187 -.00000325  00000+0  00000+0 0  9996
2 35755   0.0193 105.2127 0001282  87.9764  60.2591  1.00272434 47403
OPTUS D3                
1 35756U 09044B   22207.54245669 -.00000145  00000+0  00000+0 0  9996
2 35756   0.0535 314.9779 0002805 156.3685 184.1461  1.00270644 47370
NIMIQ 5                 
1 35873U 09050A   22207.11785535 -.00000254  00000+0  00000+0 0  9998
2 35873   0.0134  84.3275 0003012  65.9617 123.2205  1.00272117 47080
AMAZONAS 2              
1 35942U 09054A   22206.80811149 -.00000280  00000+0  00000+0 0  9994
2 35942   0.0265 148.6227 0005177 342.6266  42.1416  1.00273026 46916
COMSATBW-1              
1 35943U 09054B   22206.83285587  .00000027  00000+0  00000+0 0  9997
2 35943   0.0556  91.6628 0002532  45.8024 168.8664  1.00272467 47042
NSS-12                  
1 36032U 09058A   22206.83163507  .00000074  00000+0  00000+0 0  9990
2 36032   0.0391 293.4743 0002614 197.1150 169.2932  1.00272572 46657
THOR 6                  
1 36033U 09058B   22207.08313332 -.00000007  00000+0  00000+0 0  9999
2 36033   0.0126 121.0305 0002029  36.2686 175.5166  1.00272813 46704
INTELSAT 14 (IS-14)     
1 36097U 09064A   22207.32947860 -.00000271  00000+0  00000+0 0  9995
2 36097   0.0022 138.7371 0002386 359.6823 239.1871  1.00271779 46438
EUTELSAT 36B            
1 36101U 09065A   22207.47319779  .00000158  00000+0  00000+0 0  9993
2 36101   0.0648  10.4169 0004716 114.1052  25.8368  1.00271376 46553
INTELSAT 15 (IS-15)     
1 36106U 09067A   22207.12423940 -.00000183  00000+0  00000+0 0  9997
2 36106   0.0214 329.9663 0002230 168.9371 294.7643  1.00271644 46342
